IRIDIUM 171             
1 43929U 19002H   24331.10604442  .00000458  00000+0  15657-3 0  9996
2 43929  86.4006 231.1754 0001820  81.9408 278.1994 14.34222304307530
IRIDIUM 170             
1 43930U 19002J   24330.81919732  .00003208  00000+0  50443-3 0  9994
2 43930  86.6122 231.0861 0002402  88.9682 271.1810 14.72271287315635
IRIDIUM 167             
1 43931U 19002K   24330.68109878 -.00000025  00000+0 -15892-4 0  9998
2 43931  86.3999 231.1269 0001944  71.7662 288.3745 14.34217244307477
IRIDIUM 181             
1 56726U 23068S   24330.89194681  .00001166  00000+0  33865-3 0  9994
2 56726  86.8594 292.6283 0002066  79.7945 280.3489 14.43586825 80463
IRIDIUM 177             
1 56727U 23068T   24331.13107053  .00004686  00000+0  61244-3 0  9992
2 56727  86.1989 238.4432 0002505  70.2153 289.9338 14.80271995 82330
IRIDIUM 174             
1 56728U 23068U   24330.92282018  .00004659  00000+0  60908-3 0  9990
2 56728  86.1994 238.6584 0002499  88.0239 272.1269 14.80256255 82307
IRIDIUM 178             
1 56729U 23068V   24330.78222131  .00004149  00000+0  54239-3 0  9999
2 56729  86.5765 263.8395 0002303  75.0014 285.1463 14.80242723 82281
IRIDIUM 179             
1 56730U 23068W   24330.91207207  .00004581  00000+0  59917-3 0  9991
2 56730  86.6769 269.9572 0002826  84.8096 275.3448 14.80238535 82303
